GLOBALSTAR M075         
1 37192U 10054E   24273.95856542 -.00000092  00000+0  64371-4 0  9990
2 37192  51.9934 253.8781 0000459  67.5611 323.0101 12.62265253643145
GLOBALSTAR M073         
1 37193U 10054F   24273.95451855 -.00000077  00000+0  15023-3 0  9991
2 37193  52.0051 167.5103 0000803  82.3102 289.9377 12.62270233644971
GLOBALSTAR M083         
1 37739U 11033A   24273.88861534 -.00000049  00000+0  30683-3 0  9994
2 37739  51.9836 116.7962 0000955  74.8743 298.5037 12.62265442613982
GLOBALSTAR M088         
1 37740U 11033B   24273.81620782 -.00000092  00000+0  66322-4 0  9995
2 37740  51.9759  22.7246 0000770  91.2559  74.0246 12.62267908609514
GLOBALSTAR M091         
1 37741U 11033C   24273.67006747 -.00000071  00000+0  18536-3 0  9999
2 37741  52.0020 346.2646 0000638  75.3993  83.3945 12.62267592610288
GLOBALSTAR M085         
1 37742U 11033D   24273.38722534 -.00000073  00000+0  16954-3 0  9991
2 37742  51.9867 298.3942 0000500  64.3655 309.8257 12.62266450610760
GLOBALSTAR M081         
1 37743U 11033E   24273.84407281 -.00000063  00000+0  22708-3 0  9995
2 37743  51.9958 299.6291 0000676  84.0667  87.2178 12.62270049610969
GLOBALSTAR M089         
1 37744U 11033F   24273.72563575 -.00000089  00000+0  81939-4 0  9992
2 37744  51.9918 254.2671 0000501 114.7381  56.4646 12.62269582611796
